[{"OBJECT_NAME":"STARLINK-3503","OBJECT_ID":"2022-022P","EPOCH":"2026-03-09T02:28:09.690816","MEAN_MOTION":15.08836556,"ECCENTRICITY":0.00013821,"INCLINATION":53.2178,"RA_OF_ASC_NODE":11.7545,"ARG_OF_PERICENTER":99.4768,"MEAN_ANOMALY":260.6381,"EPHEMERIS_TYPE":0,"CLASSIFICATION_TYPE":"U","NORAD_CAT_ID":51865,"ELEMENT_SET_NO":999,"REV_AT_EPOCH":22302,"BSTAR":1.3921816e-5,"MEAN_MOTION_DOT":-6.6e-7,"MEAN_MOTION_DDOT":0},{"OBJECT_NAME":"CZ-6A DEB","OBJECT_ID":"2022-151ZP","EPOCH":"2026-03-09T04:30:54.238464","MEAN_MOTION":15.16398418,"ECCENTRICITY":0.00295026,"INCLINATION":98.6165,"RA_OF_ASC_NODE":143.0832,"ARG_OF_PERICENTER":204.3397,"MEAN_ANOMALY":155.6441,"EPHEMERIS_TYPE":0,"CLASSIFICATION_TYPE":"U","NORAD_CAT_ID":55867,"ELEMENT_SET_NO":999,"REV_AT_EPOCH":16441,"BSTAR":0.0090941605,"MEAN_MOTION_DOT":0.00182799,"MEAN_MOTION_DDOT":0}]
